NORAD_CAT_ID,OBJECT_NAME,OBJECT_TYPE,EPOCH,MEAN_MOTION,ECCENTRICITY,INCLINATION,RA_OF_ASC_NODE,ARG_OF_PERICENTER,MEAN_ANOMALY,BSTAR,MEAN_MOTION_DOT,MEAN_MOTION_DDOT,TLE_LINE0,TLE_LINE1,TLE_LINE2,SEMIMAJOR_AXIS,PERIOD,APOGEE,PERIGEE,DECAYED
50850.0,STARLINK-3312,PAYLOAD,2022-07-16 22:00:00,15.08834736,0.0001768,53.2144,357.6749,51.0477,314.3227,0.0012139,0.00019081,0.0,0 STARLINK-3312,1 50850U 22001AZ  22197.91667824  .00019081  00000-0  12139-2 0  9994,2 50850  53.2144 357.6749 0001768  51.0477 314.3227 15.08834736 31052,6917.896,95.438,540.985,538.538,0.0
50850.0,STARLINK-3312,PAYLOAD,2022-07-17 14:00:01,15.0886905,0.0001743,53.2149,354.681,56.8208,331.732,-0.0037036,-0.00058797,0.0,0 STARLINK-3312,1 50850U 22001AZ  22198.58334491 -.00058797  00000-0 -37036-2 0  9991,2 50850  53.2149 354.6810 0001743  56.8208 331.7320 15.08869050 31156,6917.792,95.436,540.862,538.451,0.0
50850.0,STARLINK-3312,PAYLOAD,2022-07-17 22:00:00,15.08804934,0.0001778,53.2149,353.1857,49.5972,350.5601,0.0029627,0.00047134,0.0,0 STARLINK-3312,1 50850U 22001AZ  22198.91667824  .00047134  00000-0  29627-2 0  9995,2 50850  53.2149 353.1857 0001778  49.5972 350.5601 15.08804934  1301,6917.988,95.44,541.0830000000002,538.623,0.0
50850.0,STARLINK-3312,PAYLOAD,2022-07-18 06:00:00,15.08812007,0.0001588,53.2151,351.6875,56.1226,355.6138,0.0027603,0.00043882,0.0,0 STARLINK-3312,1 50850U 22001AZ  22199.25001157  .00043882  00000-0  27603-2 0  9992,2 50850  53.2151 351.6875 0001588  56.1226 355.6138 15.08812007 31250,6917.965999999999,95.439,540.93,538.732,0.0
50850.0,STARLINK-3312,PAYLOAD,2022-07-18 14:00:01,15.08856879,0.0001641,53.2152,350.19199999999995,54.1858,9.1261,-0.0036435,-0.00057836,0.0,0 STARLINK-3312,1 50850U 22001AZ  22199.58334491 -.00057836  00000-0 -36435-2 0  9997,2 50850  53.2152 350.1920 0001641  54.1858   9.1261 15.08856879  1301,6917.829000000002,95.436,540.8290000000002,538.559,0.0
50850.0,STARLINK-3312,PAYLOAD,2022-07-18 22:00:00,15.08811134,0.0001695,53.2151,348.6965,46.6683,28.2351,0.0024726,0.00039252,0.0,0 STARLINK-3312,1 50850U 22001AZ  22199.91667824  .00039252  00000-0  24726-2 0  9993,2 50850  53.2151 348.6965 0001695  46.6683  28.2351 15.08811134  1309,6917.969,95.439,541.006,538.661,0.0
50850.0,STARLINK-3312,PAYLOAD,2022-07-19 00:00:00,15.08835787,0.0001675999999999,53.2152,348.32199999999995,48.327,119.4633,-0.0003788,-6.311e-05,0.0,0 STARLINK-3312,1 50850U 22001AZ  22200.00001157 -.00006311  00000-0 -37880-3 0  9995,2 50850  53.2152 348.3220 0001676  48.3270 119.4633 15.08835787 31366,6917.893,95.438,540.918,538.599,0.0
50850.0,STARLINK-3312,PAYLOAD,2022-07-19 14:00:01,15.08871586,0.0001626,53.215,345.70300000000015,53.1649,44.9101,-0.0025884,-0.00041282,0.0,0 STARLINK-3312,1 50850U 22001AZ  22200.58334491 -.00041282  00000-0 -25884-2 0  9994,2 50850  53.2150 345.7030 0001626  53.1649  44.9101 15.08871586 31452,6917.784000000002,95.436,540.774,538.524,0.0
50850.0,STARLINK-3312,PAYLOAD,2022-07-19 22:00:00,15.08856772,0.0001757,53.2158,344.2082,47.2891,62.3959,-0.0039116,-0.00062035,0.0,0 STARLINK-3312,1 50850U 22001AZ  22200.91667824 -.00062035  00000-0 -39116-2 0  9992,2 50850  53.2158 344.2082 0001757  47.2891  62.3959 15.08856772  1305,6917.829000000002,95.436,540.91,538.479,0.0
50850.0,STARLINK-3312,PAYLOAD,2022-07-20 14:00:01,15.08864009,0.0001735,53.2145,341.2137,55.8727,77.0547,-0.0023702,-0.00037837,0.0,0 STARLINK-3312,1 50850U 22001AZ  22201.58334491 -.00037837  00000-0 -23702-2 0  9993,2 50850  53.2145 341.2137 0001735  55.8727  77.0547 15.08864009  1306,6917.807,95.436,540.872,538.472,0.0
50850.0,STARLINK-3312,PAYLOAD,2022-07-20 22:00:01,15.08843784,0.0001714,53.214,339.7176,50.0051,94.5862,-0.0036902999999999,-0.00058549,0.0,0 STARLINK-3312,1 50850U 22001AZ  22201.91668981 -.00058549  00000-0 -36903-2 0  9994,2 50850  53.2140 339.7176 0001714  50.0051  94.5862 15.08843784 31652,6917.869000000002,95.437,540.92,538.548,0.0
50850.0,STARLINK-3312,PAYLOAD,2022-07-21 14:00:01,15.08808641,0.0001571999999999,53.2139,336.7245,52.4965,115.2057,-0.0010475999999999,-0.00016908,0.0,0 STARLINK-3312,1 50850U 22001AZ  22202.58335648 -.00016908  00000-0 -10476-2 0  9999,2 50850  53.2139 336.7245 0001572  52.4965 115.2057 15.08808641 31757,6917.976,95.44,540.929,538.754,0.0
50850.0,STARLINK-3312,PAYLOAD,2022-07-22 00:00:00,15.08825502,0.000158,53.2135,334.8538,49.56800000000001,222.5052,-0.0016259,-0.00026061,0.0,0 STARLINK-3312,1 50850U 22001AZ  22203.00001157 -.00026061  00000-0 -16259-2 0  9998,2 50850  53.2135 334.8538 0001580  49.5680 222.5052 15.08825502  1307,6917.925,95.438,540.883,538.697,0.0
50850.0,STARLINK-3312,PAYLOAD,2022-07-22 06:00:00,15.0879896,0.0001482,53.2134,333.7303,54.6196,136.1407,0.0031927,0.00050833,0.0,0 STARLINK-3312,1 50850U 22001AZ  22203.25001157  .00050833  00000-0  31927-2 0  9996,2 50850  53.2134 333.7303 0001482  54.6196 136.1407 15.08798960 31858,6918.005999999999,95.44,540.896,538.846,0.0
50850.0,STARLINK-3312,PAYLOAD,2022-07-22 22:00:00,15.08847107,0.0001666999999999,53.2134,330.7389,47.0208,166.8948,0.00028797,4.299e-05,0.0,0 STARLINK-3312,1 50850U 22001AZ  22203.91667824  .00004299  00000-0  28797-3 0  9995,2 50850  53.2134 330.7389 0001667  47.0208 166.8948 15.08847107 31953,6917.859,95.437,540.877,538.57,0.0
50850.0,STARLINK-3312,PAYLOAD,2022-07-23 00:00:00,15.08861215,0.0001621999999999,53.2134,330.3642,48.589,258.2241,-0.0015364,-0.00024671,0.0,0 STARLINK-3312,1 50850U 22001AZ  22204.00001157 -.00024671  00000-0 -15364-2 0  9990,2 50850  53.2134 330.3642 0001622  48.5890 258.2241 15.08861215  1309,6917.816,95.436,540.803,538.558,0.0
50850.0,STARLINK-3312,PAYLOAD,2022-07-23 14:00:01,15.08863478,0.0001678,53.2141,327.7461,50.1521,187.0341,-0.0008406,-0.0001365,0.0,0 STARLINK-3312,1 50850U 22001AZ  22204.58335648 -.00013650  00000-0 -84060-3 0  9993,2 50850  53.2141 327.7461 0001678  50.1521 187.0341 15.08863478  1300,6917.809,95.436,540.8340000000002,538.513,0.0
50850.0,STARLINK-3312,PAYLOAD,2022-07-23 22:00:00,15.08873677,0.0001649,53.2136,326.249,44.6644,204.0816,-0.0022935,-0.00036638,0.0,0 STARLINK-3312,1 50850U 22001AZ  22204.91667824 -.00036638  00000-0 -22935-2 0  9997,2 50850  53.2136 326.2490 0001649  44.6644 204.0816 15.08873677  1301,6917.776999999999,95.435,540.783,538.502,0.0
50850.0,STARLINK-3312,PAYLOAD,2022-07-24 00:00:00,15.08867294,0.0001607,53.2137,325.8744,45.9056,295.7487,-0.0020843,-0.00033331,0.0,0 STARLINK-3312,1 50850U 22001AZ  22205.00001157 -.00033331  00000-0 -20843-2 0  9992,2 50850  53.2137 325.8744 0001607  45.9056 295.7487 15.08867294 32127,6917.797,95.436,540.774,538.55,0.0
50850.0,STARLINK-3312,PAYLOAD,2022-07-24 14:00:01,15.08866475,0.0001699,53.214,323.256,47.8234,224.1427,-0.0042986999999999,-0.00068105,0.0,0 STARLINK-3312,1 50850U 22001AZ  22205.58334491 -.00068105  00000-0 -42987-2 0  9995,2 50850  53.2140 323.2560 0001699  47.8234 224.1427 15.08866475  1305,6917.799,95.436,540.84,538.489,0.0
50850.0,STARLINK-3312,PAYLOAD,2022-07-24 22:00:00,15.08831711,0.0001683,53.2141,321.7593,44.5169,239.0452,-0.0020321,-0.00032476,0.0,0 STARLINK-3312,1 50850U 22001AZ  22205.91667824 -.00032476  00000-0 -20321-2 0  9991,2 50850  53.2141 321.7593 0001683  44.5169 239.0452 15.08831711  1307,6917.906,95.438,540.935,538.606,0.0
50850.0,STARLINK-3312,PAYLOAD,2022-07-25 14:00:01,15.08823804,0.0001718,53.2146,318.7667,46.3735,260.3241,-0.00056027,-9.19e-05,0.0,0 STARLINK-3312,1 50850U 22001AZ  22206.58334491 -.00009190  00000-0 -56027-3 0  9996,2 50850  53.2146 318.7667 0001718  46.3735 260.3241 15.08823804 32365,6917.93,95.439,540.9830000000002,538.606,0.0
50850.0,STARLINK-3312,PAYLOAD,2022-07-25 22:00:00,15.08841545,0.0001686,53.2146,317.27,44.2949,273.9689,-0.0016966999999999,-0.00027191,0.0,0 STARLINK-3312,1 50850U 22001AZ  22206.91667824 -.00027191  00000-0 -16967-2 0  9991,2 50850  53.2146 317.2700 0001686  44.2949 273.9689 15.08841545  1303,6917.876,95.437,540.9069999999998,538.5740000000002,0.0
50850.0,STARLINK-3312,PAYLOAD,2022-07-26 14:00:01,15.08838377,0.0001726,53.2149,314.2776,46.1403,295.2944,-0.00055004,-9.031e-05,0.0,0 STARLINK-3312,1 50850U 22001AZ  22207.58334491 -.00009031  00000-0 -55004-3 0  9995,2 50850  53.2149 314.2776 0001726  46.1403 295.2944 15.08838377 32514,6917.885,95.438,540.944,538.556,0.0
50850.0,STARLINK-3312,PAYLOAD,2022-07-26 22:00:00,15.08857047,0.0001675,53.2147,312.7808,44.631,308.3885,-0.001967,-0.00031471,0.0,0 STARLINK-3312,1 50850U 22001AZ  22207.91667824 -.00031471  00000-0 -19670-2 0  9992,2 50850  53.2147 312.7808 0001675  44.6310 308.3885 15.08857047  1302,6917.828,95.436,540.852,538.535,0.0
50850.0,STARLINK-3312,PAYLOAD,2022-07-27 06:00:02,15.08833451,0.0001531999999999,53.215,311.2832,51.7491,312.9432,0.002409,0.00038253,0.0,0 STARLINK-3312,1 50850U 22001AZ  22208.25002315  .00038253  00000-0  24090-2 0  9993,2 50850  53.2150 311.2832 0001532  51.7491 312.9432 15.08833451 32618,6917.9,95.438,540.825,538.706,0.0
50850.0,STARLINK-3312,PAYLOAD,2022-07-27 14:00:01,15.08852891,0.0001715,53.2148,309.7887,46.512,329.7212,-0.0003843999999999,-6.403e-05,0.0,0 STARLINK-3312,1 50850U 22001AZ  22208.58334491 -.00006403  00000-0 -38440-3 0  9991,2 50850  53.2148 309.7887 0001715  46.5120 329.7212 15.08852891  1304,6917.840999999999,95.437,540.8919999999998,538.52,0.0
50850.0,STARLINK-3312,PAYLOAD,2022-07-27 22:00:00,15.08884422,0.0001686999999999,53.2144,308.2915,46.5401,341.2972,-0.0047516999999999,-0.00075214,0.0,0 STARLINK-3312,1 50850U 22001AZ  22208.91667824 -.00075214  00000-0 -47517-2 0  9997,2 50850  53.2144 308.2915 0001687  46.5401 341.2972 15.08884422  1303,6917.745,95.435,540.7769999999998,538.443,0.0
50850.0,STARLINK-3312,PAYLOAD,2022-07-28 00:00:00,15.08866992,0.0001626999999999,53.2146,307.9170000000001,49.6726,71.0749,-0.0034213,-0.00054368,0.0,0 STARLINK-3312,1 50850U 22001AZ  22209.00001157 -.00054368  00000-0 -34213-2 0  9995,2 50850  53.2146 307.9170 0001627  49.6726  71.0749 15.08866992 32724,6917.7980000000025,95.436,540.788,538.5369999999998,0.0
